{"type": "FeatureCollection", "features": [ {"type": "Feature", "properties": {"norad_id": 39585, "name": "COSMOS 2251 DEB", "group": "cosmos-2251-debris", "lat": 21.20552501138984, "lon": 126.44764560987174, "alt_km": 690.3892135235774, "timestamp": "2025-12-06T16:45:43.119865+00:00", "meta": {"OBJECT_NAME": "COSMOS 2251 DEB", "OBJECT_ID": "1993-036BUQ", "EPOCH": "2025-11-29T06:16:21.203328", "MEAN_MOTION": 14.58611374, "ECCENTRICITY": 0.00652828, "INCLINATION": 74.0406, "RA_OF_ASC_NODE": 326.9733, "ARG_OF_PERICENTER": 91.8532, "MEAN_ANOMALY": 269.0111, "EPHEMERIS_TYPE": 0, "CLASSIFICATION_TYPE": "U", "NORAD_CAT_ID": 39585, "ELEMENT_SET_NO": 999, "REV_AT_EPOCH": 62324, "BSTAR": 0.00023928135, "MEAN_MOTION_DOT": 1.117e-05, "MEAN_MOTION_DDOT": 0}, "tle": {"line1": "1 39585U 93036BUQ 25333.26135652  .00001117  00000+0  23928-3 0  9993", "line2": "2 39585  74.0406 326.9733 0065282  91.8532 269.0111 14.58611374623244"}}, "geometry": {"type": "Point", "coordinates": [126.44764560987174, 21.20552501138984]}}, {"type": "Feature", "properties": {"norad_id": 39586, "name": "COSMOS 2251 DEB", "group": "cosmos-2251-debris", "lat": 43.929888706702734, "lon": -104.87007338002346, "alt_km": 755.3033887738966, "timestamp": "2025-12-06T16:45:43.119875+00:00", "meta": {"OBJECT_NAME": "COSMOS 2251 DEB", "OBJECT_ID": "1993-036BUR", "EPOCH": "2025-12-04T00:26:07.876608", "MEAN_MOTION": 14.21195867, "ECCENTRICITY": 0.01003221, "INCLINATION": 74.0095, "RA_OF_ASC_NODE": 243.9042, "ARG_OF_PERICENTER": 20.3845, "MEAN_ANOMALY": 357.5964, "EPHEMERIS_TYPE": 0, "CLASSIFICATION_TYPE": "U", "NORAD_CAT_ID": 39586, "ELEMENT_SET_NO": 999, "REV_AT_EPOCH": 60848, "BSTAR": 0.00088936605, "MEAN_MOTION_DOT": 2.011e-05, "MEAN_MOTION_DDOT": 0}, "tle": {"line1": "1 39586U 93036BUR 25338.01814672  .00002011  00000+0  88937-3 0  9993", "line2": "2 39586  74.0095 243.9042 0100322  20.3845 357.5964 14.21195867608481"}}, "geometry": {"type": "Point", "coordinates": [-104.87007338002346, 43.929888706702734]}}, {"type": "Feature", "properties": {"norad_id": 39591, "name": "COSMOS 2251 DEB", "group": "cosmos-2251-debris", "lat": -25.823101772968624, "lon": 85.94721588680606, "alt_km": 777.8210167695479, "timestamp": "2025-12-06T16:45:43.119885+00:00", "meta": {"OBJECT_NAME": "COSMOS 2251 DEB", "OBJECT_ID": "1993-036BUW", "EPOCH": "2025-12-02T01:57:06.430752", "MEAN_MOTION": 14.41775079, "ECCENTRICITY": 0.00288186, "INCLINATION": 74.0265, "RA_OF_ASC_NODE": 266.5373, "ARG_OF_PERICENTER": 22.6115, "MEAN_ANOMALY": 349.3407, "EPHEMERIS_TYPE": 0, "CLASSIFICATION_TYPE": "U", "NORAD_CAT_ID": 39591, "ELEMENT_SET_NO": 999, "REV_AT_EPOCH": 61623, "BSTAR": 0.00055457771, "MEAN_MOTION_DOT": 1.794e-05, "MEAN_MOTION_DDOT": 0}, "tle": {"line1": "1 39591U 93036BUW 25336.08132443  .00001794  00000+0  55458-3 0  9992", "line2": "2 39591  74.0265 266.5373 0028818  22.6115 349.3407 14.41775079616232"}}, "geometry": {"type": "Point", "coordinates": [85.94721588680606, -25.823101772968624]}}, {"type": "Feature", "properties": {"norad_id": 40218, "name": "COSMOS 2251 DEB", "group": "cosmos-2251-debris", "lat": 67.49299833291593, "lon": 36.309785946641846, "alt_km": 752.5727554541972, "timestamp": "2025-12-06T16:45:43.119904+00:00", "meta": {"OBJECT_NAME": "COSMOS 2251 DEB", "OBJECT_ID": "1993-036BUX", "EPOCH": "2025-12-02T02:20:48.132384", "MEAN_MOTION": 14.41546301, "ECCENTRICITY": 0.00163619, "INCLINATION": 74.0309, "RA_OF_ASC_NODE": 268.5457, "ARG_OF_PERICENTER": 353.795, "MEAN_ANOMALY": 6.3, "EPHEMERIS_TYPE": 0, "CLASSIFICATION_TYPE": "U", "NORAD_CAT_ID": 40218, "ELEMENT_SET_NO": 999, "REV_AT_EPOCH": 58708, "BSTAR": 0.00047133972, "MEAN_MOTION_DOT": 1.508e-05, "MEAN_MOTION_DDOT": 0}, "tle": {"line1": "1 40218U 93036BUX 25336.09777931  .00001508  00000+0  47134-3 0  9993", "line2": "2 40218  74.0309 268.5457 0016361 353.7950   6.3000 14.41546301587082"}}, "geometry": {"type": "Point", "coordinates": [36.309785946641846, 67.49299833291593]}}, {"type": "Feature", "properties": {"norad_id": 40223, "name": "COSMOS 2251 DEB", "group": "cosmos-2251-debris", "lat": 0.6155910586899987, "lon": -79.06358141522993, "alt_km": 566.2900805970539, "timestamp": "2025-12-06T16:45:43.119923+00:00", "meta": {"OBJECT_NAME": "COSMOS 2251 DEB", "OBJECT_ID": "1993-036BVC", "EPOCH": "2025-12-06T02:22:01.105824", "MEAN_MOTION": 15.0245395, "ECCENTRICITY": 0.00155815, "INCLINATION": 73.937, "RA_OF_ASC_NODE": 102.3444, "ARG_OF_PERICENTER": 296.8665, "MEAN_ANOMALY": 239.5925, "EPHEMERIS_TYPE": 0, "CLASSIFICATION_TYPE": "U", "NORAD_CAT_ID": 40223, "ELEMENT_SET_NO": 999, "REV_AT_EPOCH": 59274, "BSTAR": 0.0082858106, "MEAN_MOTION_DOT": 0.00111919, "MEAN_MOTION_DDOT": 0}, "tle": {"line1": "1 40223U 93036BVC 25340.09862391  .00111919  00000+0  82858-2 0  9998", "line2": "2 40223  73.9370 102.3444 0015581 296.8665 239.5925 15.02453950592748"}}, "geometry": {"type": "Point", "coordinates": [-79.06358141522993, 0.6155910586899987]}}, {"type": "Feature", "properties": {"norad_id": 40228, "name": "COSMOS 2251 DEB", "group": "cosmos-2251-debris", "lat": 8.789920703839538, "lon": -85.77084826465601, "alt_km": 742.8027277056772, "timestamp": "2025-12-06T16:45:43.119948+00:00", "meta": {"OBJECT_NAME": "COSMOS 2251 DEB", "OBJECT_ID": "1993-036BVH", "EPOCH": "2025-12-06T01:47:35.450304", "MEAN_MOTION": 14.40969365, "ECCENTRICITY": 0.00238334, "INCLINATION": 74.055, "RA_OF_ASC_NODE": 272.8479, "ARG_OF_PERICENTER": 335.259, "MEAN_ANOMALY": 39.7103, "EPHEMERIS_TYPE": 0, "CLASSIFICATION_TYPE": "U", "NORAD_CAT_ID": 40228, "ELEMENT_SET_NO": 999, "REV_AT_EPOCH": 58825, "BSTAR": 0.00061663194, "MEAN_MOTION_DOT": 1.961e-05, "MEAN_MOTION_DDOT": 0}, "tle": {"line1": "1 40228U 93036BVH 25340.07471586  .00001961  00000+0  61663-3 0  9990", "line2": "2 40228  74.0550 272.8479 0023833 335.2590  39.7103 14.40969365588252"}}, "geometry": {"type": "Point", "coordinates": [-85.77084826465601, 8.789920703839538]}}, {"type": "Feature", "properties": {"norad_id": 40230, "name": "COSMOS 2251 DEB", "group": "cosmos-2251-debris", "lat": -8.48062301455485, "lon": -124.22975701730391, "alt_km": 723.75072493274, "timestamp": "2025-12-06T16:45:43.119971+00:00", "meta": {"OBJECT_NAME": "COSMOS 2251 DEB", "OBJECT_ID": "1993-036BVK", "EPOCH": "2025-12-05T11:49:12.794880", "MEAN_MOTION": 14.49259606, "ECCENTRICITY": 0.00191133, "INCLINATION": 74.0458, "RA_OF_ASC_NODE": 240.4744, "ARG_OF_PERICENTER": 299.5216, "MEAN_ANOMALY": 242.5097, "EPHEMERIS_TYPE": 0, "CLASSIFICATION_TYPE": "U", "NORAD_CAT_ID": 40230, "ELEMENT_SET_NO": 999, "REV_AT_EPOCH": 58866, "BSTAR": 0.0014637297, "MEAN_MOTION_DOT": 5.571e-05, "MEAN_MOTION_DDOT": 0}, "tle": {"line1": "1 40230U 93036BVK 25339.49250920  .00005571  00000+0  14637-2 0  9993", "line2": "2 40230  74.0458 240.4744 0019113 299.5216 242.5097 14.49259606588661"}}, "geometry": {"type": "Point", "coordinates": [-124.22975701730391, -8.48062301455485]}}, {"type": "Feature", "properties": {"norad_id": 40233, "name": "COSMOS 2251 DEB", "group": "cosmos-2251-debris", "lat": -21.069335493709826, "lon": 108.30014537141031, "alt_km": 731.1712972699543, "timestamp": "2025-12-06T16:45:43.119989+00:00", "meta": {"OBJECT_NAME": "COSMOS 2251 DEB", "OBJECT_ID": "1993-036BVN", "EPOCH": "2025-12-04T02:17:52.292832", "MEAN_MOTION": 14.58236674, "ECCENTRICITY": 0.00461905, "INCLINATION": 73.9387, "RA_OF_ASC_NODE": 119.6526, "ARG_OF_PERICENTER": 195.886, "MEAN_ANOMALY": 164.0859, "EPHEMERIS_TYPE": 0, "CLASSIFICATION_TYPE": "U", "NORAD_CAT_ID": 40233, "ELEMENT_SET_NO": 999, "REV_AT_EPOCH": 59011, "BSTAR": 0.0029314151, "MEAN_MOTION_DOT": 0.00013736, "MEAN_MOTION_DDOT": 0}, "tle": {"line1": "1 40233U 93036BVN 25338.09574413  .00013736  00000+0  29314-2 0  9997", "line2": "2 40233  73.9387 119.6526 0046190 195.8860 164.0859 14.58236674590113"}}, "geometry": {"type": "Point", "coordinates": [108.30014537141031, -21.069335493709826]}}, {"type": "Feature", "properties": {"norad_id": 40236, "name": "COSMOS 2251 DEB", "group": "cosmos-2251-debris", "lat": 54.24684625969489, "lon": 177.52883569427263, "alt_km": 787.9097690818035, "timestamp": "2025-12-06T16:45:43.120000+00:00", "meta": {"OBJECT_NAME": "COSMOS 2251 DEB", "OBJECT_ID": "1993-036BVR", "EPOCH": "2025-11-24T19:56:56.097312", "MEAN_MOTION": 13.24604738, "ECCENTRICITY": 0.0536049, "INCLINATION": 73.5357, "RA_OF_ASC_NODE": 171.9764, "ARG_OF_PERICENTER": 53.9086, "MEAN_ANOMALY": 311.0422, "EPHEMERIS_TYPE": 0, "CLASSIFICATION_TYPE": "U", "NORAD_CAT_ID": 40236, "ELEMENT_SET_NO": 999, "REV_AT_EPOCH": 53387, "BSTAR": 0.0012678, "MEAN_MOTION_DOT": 1.163e-05, "MEAN_MOTION_DDOT": 0}, "tle": {"line1": "1 40236U 93036BVR 25328.83120483  .00001163  00000+0  12678-2 0  9991", "line2": "2 40236  73.5357 171.9764 0536049  53.9086 311.0422 13.24604738533877"}}, "geometry": {"type": "Point", "coordinates": [177.52883569427263, 54.24684625969489]}}, {"type": "Feature", "properties": {"norad_id": 40238, "name": "COSMOS 2251 DEB", "group": "cosmos-2251-debris", "lat": 31.139882536297232, "lon": -117.11386710724547, "alt_km": 1222.4994864596083, "timestamp": "2025-12-06T16:45:43.120011+00:00", "meta": {"OBJECT_NAME": "COSMOS 2251 DEB", "OBJECT_ID": "1993-036BVT", "EPOCH": "2025-12-04T13:20:38.533056", "MEAN_MOTION": 13.25091202, "ECCENTRICITY": 0.0549745, "INCLINATION": 73.9885, "RA_OF_ASC_NODE": 76.1652, "ARG_OF_PERICENTER": 49.7266, "MEAN_ANOMALY": 315.0566, "EPHEMERIS_TYPE": 0, "CLASSIFICATION_TYPE": "U", "NORAD_CAT_ID": 40238, "ELEMENT_SET_NO": 999, "REV_AT_EPOCH": 53928, "BSTAR": 0.0023519, "MEAN_MOTION_DOT": 2.29e-05, "MEAN_MOTION_DDOT": 0}, "tle": {"line1": "1 40238U 93036BVT 25338.55600154  .00002290  00000+0  23519-2 0  9999", "line2": "2 40238  73.9885  76.1652 0549745  49.7266 315.0566 13.25091202539282"}}, "geometry": {"type": "Point", "coordinates": [-117.11386710724547, 31.139882536297232]}}]}